FID,Descriptio,Actual_Fin,Address,Location,X,Y,x2,y2
1,EMERGENCY LEAK,12/18/2022 12:00:00 AM,1315 S. STATE ST SYRACUSE NY,S STATE ST 1300,-8476654.595,5317287.269,-8476654.595,5317287.269
2,EMERGENCY LEAK,12/17/2022 12:00:00 AM,"105 W Fayette St, Syracuse, New York, 13202","105 W Fayette St, Syracuse, New York, 13202",-8477279.836,5319391.24,-8477279.836,5319391.24
3,REPAIR MAIN,12/16/2022 12:00:00 AM,Elmhurst Ave@Hunt Ave Syracuse NY,Elmhurst Ave@Hunt Ave Syracuse NY,-8477617.08561,5315161.19346,-8477617.08561,5315161.19346
4,EMERGENCY LEAK,12/13/2022 12:00:00 AM,"Meadowbrook Dr & Hillsboro Pkwy, Syracuse, New York, 13224","Meadowbrook Dr & Hillsboro Pkwy, Syracuse, New York, 13224",-8470687.466,5318452.808,-8470687.466,5318452.808
5,EMERGENCY LEAK,12/10/2022 12:00:00 AM,"E. Fayette Street @ Croly Street Syracuse,NY",E FAYETTE ST 2100,-8472832.31,5319314.354,-8472832.31,5319314.354
6,EMERGENCY LEAK,12/9/2022 12:00:00 AM,"Brampton Rd & Coldbrook Dr,  Syracuse,  New York,  13205",Leak on Hydrant N/ W Corner,-8475893.785,5310828.086,-8475893.785,5310828.086
7,EMERGENCY LEAK,12/8/2022 12:00:00 AM,"1151 Glenwood Ave, Syracuse, New York, 13207","1151 Glenwood Ave, Syracuse, New York, 13207",-8480282.231,5315662.104,-8480282.231,5315662.104
8,EMERGENCY LEAK,12/6/2022 12:00:00 AM,"829 Northway St,  Syracuse,  New York,  13224",NORTHWAY ST 900,-8470504.887,5320030.215,-8470504.887,5320030.215
9,EMERGENCY LEAK,12/5/2022 12:00:00 AM,1232-36 W Genesee St Syracuse NY,1232-36 W Genesee St Syracuse NY,-8479967.895,5320079.309,-8479967.895,5320079.309
10,EMERGENCY LEAK,12/5/2022 12:00:00 AM,E Fayette St @ Westmoreland Ave Syracuse NY,E FAYETTE ST,-8473054.183,5319318.383,-8473054.183,5319318.383
11,REPLACE MAIN,12/5/2022 12:00:00 AM,308 Hurlburt Rd, ,-8471502.085,5317865.093,-8471502.085,5317865.093
12,REPLACE MAIN,12/5/2022 12:00:00 AM,317 Hurlburt Rd, ,-8471439.989,5317779.44,-8471439.989,5317779.44
13,EMERGENCY LEAK,12/5/2022 12:00:00 AM,"Kirkpatrick St & Basin St, Syracuse, New York, 13208","Kirkpatrick St & Basin St, Syracuse, New York, 13208",-8477860.487,5321566.291,-8477860.487,5321566.291
14,REPLACE MAIN,12/4/2022 12:00:00 AM,311 Hurlburt Rd, ,-8471420.739,5317869.776,-8471420.739,5317869.776
15,REPAIR MAIN,12/4/2022 12:00:00 AM,"218 Magnolia Street Syracuse,NY",#218 Magnolia Street,-8479686.849,5318676.566,-8479686.849,5318676.566
16,EMERGENCY LEAK,12/4/2022 12:00:00 AM,"1001 Hiawatha Blvd E, Syracuse, New York, 13208","1001 Hiawatha Blvd E, Syracuse, New York, 13208",-8477921.262,5324405.225,-8477921.262,5324405.225
17,EMERGENCY LEAK,11/30/2022 12:00:00 AM,139 Alden st Syracuse NY,ALDEN ST 100,-8475089.614,5314882.405,-8475089.614,5314882.405
18,EMERGENCY LEAK,11/28/2022 12:00:00 AM,"221 Fayette Blvd. Syracuse,NY",FAYETTE BLVD 200,-8471292.042,5319463.472,-8471292.042,5319463.472
19,EMERGENCY LEAK,11/28/2022 12:00:00 AM,"Spencer St, Syracuse, New York, 13204",MIDDLE OF INTERSECTION OF SPENCER ST @ N.STATE ST ---LEAK WAS ON THE (6"") MAIN ON THE SPENCER  ST SIDE-- STUB.,-8477590.348,5321288.976,-8477590.348,5321288.976
20,EMERGENCY LEAK,11/28/2022 12:00:00 AM,"1310 Jamesville Ave, Syracuse, New York, 13210","1310 Jamesville Ave, Syracuse, New York, 13210",-8474273.029,5313954.979,-8474273.029,5313954.979
21,EMERGENCY LEAK,11/19/2022 12:00:00 AM,"509 Erie Blvd W Syracuse, NY",509 Erie Blvd W.,-8478290.265,5319526.72,-8478290.265,5319526.72
22,EMERGENCY LEAK,11/17/2022 12:00:00 AM,"S Salina St & W Florence Ave,  Syracuse,  New York,  13205",S SALINA ST 4300,-8476198.537,5313000.05,-8476198.537,5313000.05
23,EMERGENCY LEAK,11/15/2022 12:00:00 AM,"201 Janet Drive Syracuse, NY13204",JANET DR 200,-8472262.901,5317005.198,-8472262.901,5317005.198
24,EMERGENCY LEAK,11/14/2022 12:00:00 AM,"450 Tracy St, Syracuse, New York, 13204","450 Tracy St, Syracuse, New York, 13204",-8478590.679,5319536.619,-8478590.679,5319536.619
25,EMERGENCY LEAK,11/14/2022 12:00:00 AM,"N Townsend St & E Willow St,  Syracuse,  New York,  13203","N Townsend St & E Willow St,  Syracuse,  New York,  13203 Syracuse 13203",-8476604.08038,5320263.3661,-8476604.08038,5320263.3661
26,EMERGENCY LEAK,11/14/2022 12:00:00 AM,"137 W Glen Ave, Syracuse, New York, 13205",W GLEN AV 100,-8476451.055,5312818.528,-8476451.055,5312818.528
27,EMERGENCY LEAK,11/14/2022 12:00:00 AM,"521 Erie Blvd W, Syracuse, New York, 13204","Erie Blvd W & Leavenworth Ave,  Syracuse,  New York,  13204 Syracuse 13204",-8478372.10654,5319439.62712,-8478372.10654,5319439.62712
28,EMERGENCY LEAK,11/12/2022 12:00:00 AM,N Townsend St @ E Willow St Syracuse NY,N/W Corner,-8476615.798,5320267.313,-8476615.798,5320267.313
29,EMERGENCY LEAK,11/8/2022 12:00:00 AM,100 Lynch St,HYDRANT BRANCH,-8473687.528,5319745.552,-8473687.528,5319745.552
30,EMERGENCY LEAK,11/6/2022 12:00:00 AM,"Comstock Ave & E Colvin St,  Syracuse,  New York,  13210",COMSTOCK AV 1100,-8474602.117,5315522.305,-8474602.117,5315522.305
31,EMERGENCY LEAK,10/29/2022 12:00:00 AM,"215 Pattison St, Syracuse, New York, 13203","215 Pattison St, Syracuse, New York, 13203",-8474354.76,5320956.443,-8474354.76,5320956.443
32,EMERGENCY LEAK,10/26/2022 12:00:00 AM,Grant Blvd. @ George St,Grant Blvd. @ George St,-8473580.63,5322713.298,-8473580.63,5322713.298
33,EMERGENCY LEAK,10/25/2022 12:00:00 AM,313 Parrish Ln,313 Parrish Ln,-8475695.212,5309887.114,-8475695.212,5309887.114
34,EMERGENCY LEAK,10/24/2022 12:00:00 AM,"405 N McBride St,  Syracuse,  New York,  13203",N MCBRIDE ST 400,-8476416.543,5320305.233,-8476416.543,5320305.233
35,EMERGENCY LEAK,10/20/2022 12:00:00 AM,800 N Clinton St Syracuse,SPENCER ST 200,-8477914.524,5321148.64,-8477914.524,5321148.64
36,EMERGENCY LEAK,10/19/2022 12:00:00 AM,Across from 719 Harrison St.,Across from 719 Harrison St.,-8475951.8,5318701.005,-8475951.8,5318701.005
37,REPAIR MAIN,10/19/2022 12:00:00 AM,Spencer St & N Clinton ST,SPENCER ST 100,-8477813.806,5321226.466,-8477813.806,5321226.466
38,REPAIR MAIN,10/19/2022 12:00:00 AM,689 N Clinton St Syracuse NY,FRONT OF 689 N. CLINTON ST--(8"") MAIN,-8477679.22,5320903.892,-8477679.22,5320903.892
39,EMERGENCY LEAK,10/14/2022 12:00:00 AM,S. State @ E. Taylor St.,N/E Corner of intersection,-8476695.41,5318008.951,-8476695.41,5318008.951
40,EMERGENCY LEAK,10/13/2022 12:00:00 AM,418 Brookford Rd.,418 Brookford Rd.,-8471138.14,5317434.306,-8471138.14,5317434.306
41,EMERGENCY LEAK,10/9/2022 12:00:00 AM,"800 East Raynor Ave Syracuse,NY",East Raynor Ave @ Irving Ave (Inside Bilco Doors),-8475684.653,5317426.949,-8475684.653,5317426.949
42,EMERGENCY LEAK,10/9/2022 12:00:00 AM,"Meadowbrook Dr & Crawford Ave,  Syracuse,  New York,  13224",CRAWFORD AV 200,-8472447.093,5317897.497,-8472447.093,5317897.497
43,EMERGENCY LEAK,10/9/2022 12:00:00 AM,"980 Hiawatha Blvd W,  Syracuse,  New York,  13204",HIAWATHA BLVD W 1000,-8480728.255,5320615.781,-8480728.255,5320615.781
44,EMERGENCY LEAK,10/9/2022 12:00:00 AM,"901-913  W Belden Ave, Syracuse, New York, 13204",901-913 W.BELDEN AVE,-8478859.198,5320331.203,-8478859.198,5320331.203
45,EMERGENCY LEAK,10/3/2022 12:00:00 AM,"337 N Beech St,  Syracuse,  New York,  13203","337 N Beech St,  Syracuse,  New York,  13203 Syracuse 13203",-8474509.19075,5320284.64,-8474509.19075,5320284.64
46,EMERGENCY LEAK,10/3/2022 12:00:00 AM,100 Kirkpatrick St.,On Basin St side of property,-8477853.74,5321552.33,-8477853.74,5321552.33
47,EMERGENCY LEAK,9/23/2022 12:00:00 AM,303 W. Matson AVe.,303 W. Matson AVe.,-8476888.104,5313927.861,-8476888.104,5313927.861
48,EMERGENCY LEAK,9/21/2022 12:00:00 AM,"311 Strathmore Dr,  Syracuse,  New York,  13207","311 Strathmore Dr,  Syracuse,  New York,  13207 Syracuse 13207",-8479507.992,5315030.972,-8479507.992,5315030.972
49,REPAIR MAIN,9/21/2022 12:00:00 AM,"206 Herbert St, Syracuse, New York, 13208","206 Herbert St, Syracuse, New York, 13208",-8476849.088,5322291.466,-8476849.088,5322291.466
50,EMERGENCY LEAK,9/20/2022 12:00:00 AM,100 Janet Dr.,In Front of 100 Janet Dr.,-8472295.247,5317251.883,-8472295.247,5317251.883
51,REPAIR MAIN,9/13/2022 12:00:00 AM,208 Slocum Ave Syracuse,SLOCUM AV 200,-8478191.021,5318134.671,-8478191.021,5318134.671
52,EMERGENCY LEAK,9/10/2022 12:00:00 AM,"219 Beecher St, Syracuse, New York, 13203", ,-8475851.609,5321285.751,-8475851.609,5321285.751
53,EMERGENCY LEAK,9/9/2022 12:00:00 AM,"E Water St & Pine St, Syracuse, New York, 13210",E WATER ST 1300,-8474714.231,5319616.267,-8474714.231,5319616.267
54,EMERGENCY LEAK,9/1/2022 12:00:00 AM,313 Hudson St.,313 Hudson St.,-8478087.284,5316765.646,-8478087.284,5316765.646
55,EMERGENCY LEAK,9/1/2022 12:00:00 AM,800-08 E. Fayette St.,Mid-Block,-8475791.435,5319356.103,-8475791.435,5319356.103
56,EMERGENCY LEAK,9/1/2022 12:00:00 AM,"110 Burlingame Rd, Syracuse, New York, 13203",BURLINGAME RD 100,-8475081.297,5321555.385,-8475081.297,5321555.385
57,REPAIR MAIN,8/31/2022 12:00:00 AM,"329 Elm St, Syracuse, New York, 13203","329 Elm St, Syracuse, New York, 13203",-8474779.881,5320129.309,-8474779.881,5320129.309
58,EMERGENCY LEAK,8/30/2022 12:00:00 AM,"137 Wheaton Rd, Syracuse, New York, 13203",WHEATON RD 100,-8474332.589,5322475.396,-8474332.589,5322475.396
59,EMERGENCY LEAK,8/25/2022 12:00:00 AM,"720 University Ave, Syracuse, New York, 13210",UNIVERSITY AV 700,-8475245.943,5318357.291,-8475245.943,5318357.291
60,EMERGENCY LEAK,8/19/2022 12:00:00 AM,"1807 W Colvin St,  Syracuse,  New York,  13207","1807 W Colvin St,  Syracuse,  New York,  13207 Syracuse 13207",-8478918.224,5315394.223,-8478918.224,5315394.223
61,EMERGENCY LEAK,8/17/2022 12:00:00 AM,"Woodruff Ave & Scoville Ave, Syracuse, New York, 13203",NORTH EAST CORNER HYDRANT BRANCH LEAK,-8475609.621,5322541.084,-8475609.621,5322541.084
62,EMERGENCY LEAK,8/17/2022 12:00:00 AM,"809 Danforth St, Syracuse, New York, 13208","809 Danforth St, Syracuse, New York, 13208",-8477446.166,5322787.781,-8477446.166,5322787.781
63,EMERGENCY LEAK,8/7/2022 12:00:00 AM,"Jamesville Ave & Thayer St, Syracuse, New York, 13210",JAMESVILLE AV,-8474519.246,5314341.259,-8474519.246,5314341.259
64,EMERGENCY LEAK,8/6/2022 12:00:00 AM,"110 N Geddes St,  Syracuse,  New York,  13204",ACROSS FROM 110 N.GEDDES ST(FIRE STATION #5),-8479309.557,5319330.746,-8479309.557,5319330.746
65,EMERGENCY LEAK,8/5/2022 12:00:00 AM,441 W. Kennedy St,W KENNEDY ST 400,-8478029.092,5316278.683,-8478029.092,5316278.683
66,EMERGENCY LEAK,8/5/2022 12:00:00 AM,"E Genesee St & Dewitt Rd, Syracuse, New York, 13214","E Genesee St & Dewitt Rd, Syracuse, New York, 13214",-8469671.207,5318222.853,-8469671.207,5318222.853
67,EMERGENCY LEAK,8/5/2022 12:00:00 AM,"332 Farmer St, Syracuse, New York, 13203", ,-8474870.116,5321804.236,-8474870.116,5321804.236
68,EMERGENCY LEAK,8/3/2022 12:00:00 AM,"321 Craig St,  Syracuse,  New York,  13208",CRAIG ST 300,-8476531.911,5322758.536,-8476531.911,5322758.536
69,EMERGENCY LEAK,8/3/2022 12:00:00 AM,"945 Meadowbrook Dr, Syracuse, New York, 13224","945 Meadowbrook Dr, Syracuse, New York, 13224",-8472701.30387,5317159.70261,-8472701.30387,5317159.70261
70,EMERGENCY LEAK,7/28/2022 12:00:00 AM,2714 Erie Blvd E.,2714 Erie Blvd E.,-8471062.602,5320239.47,-8471062.602,5320239.47
71,EMERGENCY LEAK,7/28/2022 12:00:00 AM,120 Wilkinson St.,120 Wilkinson St.,-8478243.805,5319704.995,-8478243.805,5319704.995
72,EMERGENCY LEAK,7/26/2022 12:00:00 AM,"713 S Crouse Ave,  Syracuse,  New York,  13210",S CROUSE AV 700,-8475488.501,5318412.37,-8475488.501,5318412.37
73,EMERGENCY LEAK,7/26/2022 12:00:00 AM,945 Meadowbrook Dr,MEADOWBROOK DR 900,-8472680.868,5317166.496,-8472680.868,5317166.496
74,EMERGENCY LEAK,7/26/2022 12:00:00 AM,"707 Schuyler St ,  Syracuse,  New York,  13204",SCHUYLER ST 700,-8481632.895,5319166.68,-8481632.895,5319166.68
75,EMERGENCY LEAK,7/22/2022 12:00:00 AM,S. Clinton St. & W. Onondaga St.,N/E Corner of intersection,-8477360.627,5318690.515,-8477360.627,5318690.515
76,EMERGENCY LEAK,7/19/2022 12:00:00 AM,136 Ridgewood Dr,136 Ridgewood Dr,-8470745.067,5322311.473,-8470745.067,5322311.473
77,EMERGENCY LEAK,7/19/2022 12:00:00 AM,"406 Melrose Ave, Syracuse, New York, 13206",MELROSE AV 400,-8473324.075,5321794.365,-8473324.075,5321794.365
78,EMERGENCY LEAK,7/19/2022 12:00:00 AM,"321 Highland Ave,  Syracuse,  New York,  13203",HIGHLAND AV 300,-8475234.934,5321350.963,-8475234.934,5321350.963
79,EMERGENCY LEAK,7/18/2022 12:00:00 AM,Across from 435 S. Warren St.,Leak on Hydrant Branch,-8477081.769,5319035.581,-8477081.769,5319035.581
80,EMERGENCY LEAK,7/18/2022 12:00:00 AM,"100 Block of S State St,  Syracuse,  New York,  13202","100 Block of S State St,  Syracuse,  New York,  13202 Syracuse 13202",-8476697.40985,5319589.61207,-8476697.40985,5319589.61207
81,EMERGENCY LEAK,7/13/2022 12:00:00 AM,"Kinne St & Sunstruck Dr, Syracuse, New York, 13206",KINNE ST 100,-8473768.866,5321068.615,-8473768.866,5321068.615
82,EMERGENCY LEAK,7/6/2022 12:00:00 AM,4413 S. Salina St.,Leak on 16"" Main,-8476199.266,5312711.355,-8476199.266,5312711.355
83,EMERGENCY LEAK,7/5/2022 12:00:00 AM,Comstock Ave & Waverly,Entire Intersection,-8474773.509,5318180.223,-8474773.509,5318180.223
84,EMERGENCY LEAK,7/5/2022 12:00:00 AM,"1511 Westmoreland Ave, Syracuse, New York, 13210",WESTMORELAND AV 600,-8473024.779,5318757.873,-8473024.779,5318757.873
85,EMERGENCY LEAK,6/15/2022 12:00:00 AM,"Brookford Rd & Euclid Ave, Syracuse, New York, 13224",BROOKFORD RD,-8471497.522,5317655.329,-8471497.522,5317655.329
86,REPAIR MAIN,6/15/2022 12:00:00 AM,405 Cayuga St,IN front of 405 Cayuga St - Painted,-8481775.414,5319468.935,-8481775.414,5319468.935
87,EMERGENCY LEAK,6/12/2022 12:00:00 AM,"1128 E Washington St, Syracuse, New York, 13210","1128 E Washington St, Syracuse, New York, 13210",-8475048.306,5319477.339,-8475048.306,5319477.339
88,EMERGENCY LEAK,6/12/2022 12:00:00 AM,251-53 Ross Park,251-53 Ross Park,-8476565.934,5323638.848,-8476565.934,5323638.848
89,EMERGENCY LEAK,6/6/2022 12:00:00 AM,"300 Hiawatha Blvd E, Syracuse, New York, 13208",HIAWATHA BLVD E 300,-8478610.562,5323111.707,-8478610.562,5323111.707
90,EMERGENCY LEAK,6/2/2022 12:00:00 AM,"215 Lincoln Park Dr, Syracuse, New York, 13203","215 Lincoln Park Dr, Syracuse, New York, 13203",-8474726.992,5320797.689,-8474726.992,5320797.689
91,EMERGENCY LEAK,6/2/2022 12:00:00 AM,98 Xavier Cir.,98 Xavier Cir.,-8474761.002,5315014.626,-8474761.002,5315014.626
92,EMERGENCY LEAK,6/1/2022 12:00:00 AM,"871 Van Rensselaer St, Syracuse, New York, 13204",VAN RENSSELAER ST -BETWEEN W.BEARD ST & HIAWTHA BLVD W,-8479587.945,5321579.766,-8479587.945,5321579.766
93,EMERGENCY LEAK,5/27/2022 12:00:00 AM,156 Ross Park,156 Ross Park,-8476363.932,5323449.147,-8476363.932,5323449.147
94,EMERGENCY LEAK,5/27/2022 12:00:00 AM,"100 E Washington St, Syracuse, New York, 13202",BANK ST 100,-8477145.383,5319492.257,-8477145.383,5319492.257
95,EMERGENCY LEAK,5/27/2022 12:00:00 AM,"N Townsend St,  Syracuse,  New York,  13203",In Between James St & Willow St-- Across from pole #53,-8476562.897,5320202.542,-8476562.897,5320202.542
96,EMERGENCY LEAK,5/24/2022 12:00:00 AM,Lewis St.,Between Kingsley PL. & Emerson Ave.,-8481400.451,5320511.861,-8481400.451,5320511.861
97,EMERGENCY LEAK,5/23/2022 12:00:00 AM,"2016 Erie Blvd E, Syracuse, New York, 13224",ERIE BLVD E 2000,-8473030.777,5319760.437,-8473030.777,5319760.437
98,EMERGENCY LEAK,5/23/2022 12:00:00 AM,Wallace St (Harold PL & West Genesee),20 Feet South of Fire Hydrant on Wallace,-8477690.637,5320045.166,-8477690.637,5320045.166
99,EMERGENCY LEAK,5/23/2022 12:00:00 AM,122 Maywood Dr.,122 Maywood Dr.,-8475566.617,5312472.852,-8475566.617,5312472.852
100,EMERGENCY LEAK,5/23/2022 12:00:00 AM,"330 N Salina St, Syracuse, New York, 13203",PEARL ST 500,-8477157.955,5320386.295,-8477157.955,5320386.295
101,EMERGENCY LEAK,5/18/2022 12:00:00 AM,175 W. Brighton Ave,175 W. Brighton Ave,-8476516.88,5315072.091,-8476516.88,5315072.091
102,EMERGENCY LEAK,5/18/2022 12:00:00 AM,221 Grand Ave.,221 Grand Ave.,-8479787.637,5317942.778,-8479787.637,5317942.778
103,EMERGENCY LEAK,5/17/2022 12:00:00 AM,118 Alexander Ave,By Pole #6 (Across from 118 Alexander Ave.),-8477076.089,5317008.779,-8477076.089,5317008.779
104,EMERGENCY LEAK,5/15/2022 12:00:00 AM,911 W. Lafayette Ave,911 W. Lafayette Ave,-8477908.479,5314739.201,-8477908.479,5314739.201
105,EMERGENCY LEAK,5/15/2022 12:00:00 AM,"181 Fayette Blvd,  Syracuse,  New York,  13224",FAYETTE BLVD 100,-8471465.299,5319451.504,-8471465.299,5319451.504
106,EMERGENCY LEAK,5/9/2022 12:00:00 AM,505 S. State St,Water main leak in front of 505 S. State St,-8476695.234,5319175.378,-8476695.234,5319175.378
107,EMERGENCY LEAK,5/9/2022 12:00:00 AM,4th North St. & Hiawatha Blvd E.,N/W Corner of intersection,-8478176.96,5323968.073,-8478176.96,5323968.073
108,EMERGENCY LEAK,5/5/2022 12:00:00 AM,Argonne Dr. @ Reed Ave.,Argonne Dr. @ Reed Ave.,-8480403.22,5316062.251,-8480403.22,5316062.251
109,EMERGENCY LEAK,5/4/2022 12:00:00 AM,"555 S State St, Syracuse, New York, 13202",Leak on hyrdant branch -- Across from 555 S State St,-8476625.76491,5319005.47644,-8476625.76491,5319005.47644
110,EMERGENCY LEAK,5/4/2022 12:00:00 AM,100 N. McBride St.,in front of 690 on Ramp,-8476301.433,5319749.623,-8476301.433,5319749.623
111,REPAIR MAIN,5/3/2022 12:00:00 AM,402 HIxson Ave,In front of 402 Hixson Ave,-8473651.801,5321489.221,-8473651.801,5321489.221
112,EMERGENCY LEAK,5/2/2022 12:00:00 AM,2646 Erie Blvd E.,Near Pole #55,-8471198.629,5320217.977,-8471198.629,5320217.977
113,EMERGENCY LEAK,5/1/2022 12:00:00 AM,"800 S State St   Syracuse,  New York,  13202","S State St & Harrison St,  Syracuse,  New York,  13202 Syracuse 13202",-8476700.033,5318671.239,-8476700.033,5318671.239
114,EMERGENCY LEAK,5/1/2022 12:00:00 AM,"413 N State St, Syracuse, New York, 13203",N STATE ST 400,-8477023.643,5320327.144,-8477023.643,5320327.144
115,EMERGENCY LEAK,4/26/2022 12:00:00 AM,"1158 W Belden Ave,  Syracuse,  New York,  13204",Front of property,-8479526.705,5320370.046,-8479526.705,5320370.046
116,EMERGENCY LEAK,4/26/2022 12:00:00 AM,209 Sedgwick Dr.,209 Sedgwick Dr.,-8474785.473,5321753.129,-8474785.473,5321753.129
117,EMERGENCY LEAK,4/25/2022 12:00:00 AM,"Maris Dr, @ Crestview Dr.",N/E Corner of intersection,-8477768.755,5311960.048,-8477768.755,5311960.048
118,EMERGENCY LEAK,4/25/2022 12:00:00 AM,Salisbury Rd. & Avery Ave.,S/W Corner  of intersection,-8481397.876,5318462.002,-8481397.876,5318462.002
119,EMERGENCY LEAK,4/25/2022 12:00:00 AM,4897 S. Salina St,Leak on Cross Over,-8476216.214,5311659.687,-8476216.214,5311659.687
120,EMERGENCY LEAK,4/25/2022 12:00:00 AM,625 Scoville Ave,In front of property,-8475032,5322560.321,-8475032,5322560.321
121,REPAIR MAIN,4/15/2022 12:00:00 AM,Bellevue Ave. @ Chester St.,Bellevue Ave. @ Chester St.,-8477885.272,5317070.454,-8477885.272,5317070.454
122,EMERGENCY LEAK,4/14/2022 12:00:00 AM,1401 Erie Blvd. E,Parking Lot,-8474392.152,5319646.641,-8474392.152,5319646.641
123,EMERGENCY LEAK,4/14/2022 12:00:00 AM,Bellevue Ave. & Chester St.,In intersection,-8477782.776,5317076.433,-8477782.776,5317076.433
124,EMERGENCY LEAK,4/13/2022 12:00:00 AM,261 Harriette Ave,261 Harriette Ave,-8474784.224,5315510.922,-8474784.224,5315510.922
125,REPAIR MAIN,4/13/2022 12:00:00 AM,1288 W. Genesee St.,1288 W. Genesee St.,-8480169.021,5320017.9,-8480169.021,5320017.9
126,EMERGENCY LEAK,4/12/2022 12:00:00 AM,431-33 S. Beech St.,431-33 S. Beech St.,-8474439.08,5318978.864,-8474439.08,5318978.864
127,REPAIR MAIN,4/11/2022 12:00:00 AM,Burt St @ S.McBride St,Center of intersection,-8476292.421,5317823.563,-8476292.421,5317823.563
128,EMERGENCY LEAK,4/11/2022 12:00:00 AM,550 Roberts Ave.,550 Roberts Ave.,-8479257.53,5315962.953,-8479257.53,5315962.953
129,EMERGENCY LEAK,4/6/2022 12:00:00 AM,"112 Headson Dr,  Syracuse,  New York,  13214",HEADSON DR 100,-8469947.94,5320368.328,-8469947.94,5320368.328
130,EMERGENCY LEAK,4/5/2022 12:00:00 AM,"142 Monticello Dr N, Syracuse, New York, 13205","142 Monticello Dr N, Syracuse, New York, 13205",-8475708.24257,5312135.00207,-8475708.24257,5312135.00207
131,EMERGENCY LEAK,4/5/2022 12:00:00 AM,"S Beech St & E Genesee St, Syracuse, New York, 13210","S Beech St & E Genesee St,  Syracuse,  New York,  13210 Syracuse 13210",-8474485.143,5319134.533,-8474485.143,5319134.533
132,EMERGENCY LEAK,4/2/2022 12:00:00 AM,"521 Hudson St, Syracuse, New York, 13207",working on the crescent av side,-8477974.616,5316317.695,-8477974.616,5316317.695
133,EMERGENCY LEAK,4/1/2022 12:00:00 AM,E. Fayette St @ Montgomery St,S/W Corner of E. Fayette St @ Montgomery St,-8476911.226,5319379.215,-8476911.226,5319379.215
134,EMERGENCY LEAK,3/30/2022 12:00:00 AM,"506 Tyson Pl,  Syracuse,  New York,  13206",TYSON PL 500,-8472184.533,5322744.674,-8472184.533,5322744.674
135,EMERGENCY LEAK,3/29/2022 12:00:00 AM,"506 Tyson Pl,  Syracuse,  New York,  13206",TYSON PL 500,-8472184.533,5322744.674,-8472184.533,5322744.674
136,EMERGENCY LEAK,3/29/2022 12:00:00 AM,"615 Hawley Ave,  Syracuse,  New York,  13203",TYSON PL,-8475256.428,5320240.772,-8475256.428,5320240.772
137,EMERGENCY LEAK,3/29/2022 12:00:00 AM,"510 Tyson Pl, Syracuse, New York, 13206",506-10 TYSON PLACE ON THE (6"") MAIN,-8472184.533,5322744.674,-8472184.533,5322744.674
138,EMERGENCY LEAK,3/29/2022 12:00:00 AM,"318 Stratford St, Syracuse, New York, 13210",Across from 318 Stratford ST,-8474320.084,5317174.304,-8474320.084,5317174.304
139,EMERGENCY LEAK,3/29/2022 12:00:00 AM,Grand Ave 150ft East of Grand Ave & Velasko Rd,Grand Ave 150ft East of Grand Ave & Velasko Rd,-8481135.528,5317527.42,-8481135.528,5317527.42
140,EMERGENCY LEAK,3/25/2022 12:00:00 AM,"980 Hiawatha Blvd W, Syracuse, New York, 13204","980 Hiawatha Blvd W, Syracuse, New York, 13204",-8480728.255,5320615.781,-8480728.255,5320615.781
141,EMERGENCY LEAK,3/24/2022 12:00:00 AM,"Hoefler St & Rowland St,  Syracuse,  New York,  13204","Hoefler St & Rowland St,  Syracuse,  New York,  13204 Syracuse 13204",-8480279.85048,5317408.85058,-8480279.85048,5317408.85058
142,EMERGENCY LEAK,3/24/2022 12:00:00 AM,"1045 James St, Syracuse, New York, 13203","1045 James St, Syracuse, New York, 13203",-8475019.526,5321154.843,-8475019.526,5321154.843
143,EMERGENCY LEAK,3/24/2022 12:00:00 AM,"300 W Willow St,  Syracuse,  New York,  13202",W WILLOW ST 300,-8477564.279,5319958.887,-8477564.279,5319958.887
144,EMERGENCY LEAK,3/23/2022 12:00:00 AM,272 S. Collingwood Ave.,On Glencove Rd. side of property,-8472239.637,5321727.276,-8472239.637,5321727.276
145,EMERGENCY LEAK,3/23/2022 12:00:00 AM,1600 Erie Blvd E.,On Cherry St. side of property,-8474020.273,5319429.298,-8474020.273,5319429.298
146,EMERGENCY LEAK,3/23/2022 12:00:00 AM,"234 Paul Ave,  Syracuse,  New York,  13206",PAUL AV 100,-8473913.643,5322620.154,-8473913.643,5322620.154
147,EMERGENCY LEAK,3/18/2022 12:00:00 AM,375 N. Midler Ave,375 N. Midler Ave,-8472057.503,5323490.378,-8472057.503,5323490.378
148,EMERGENCY LEAK,3/17/2022 12:00:00 AM,192 Colby Ave., ,-8471732.59,5323205.618,-8471732.59,5323205.618
149,REPAIR MAIN,3/17/2022 12:00:00 AM,"236 E Onondaga St, Syracuse, New York, 13202",HYDRANT  IN FRONT OF 236 E.ONONDAGA ST,-8476963.148,5318994.851,-8476963.148,5318994.851
150,EMERGENCY LEAK,3/16/2022 12:00:00 AM,Thorden Park,"43.041851, -76.124904",-8474190.319,5318305.659,-8474190.319,5318305.659
151,EMERGENCY LEAK,3/11/2022 12:00:00 AM,"821 Northway St, Syracuse, New York, 13224",FRONT OF PROPERTY--IN ROAD,-8470662.076,5320018.976,-8470662.076,5320018.976
152,EMERGENCY LEAK,3/10/2022 12:00:00 AM,"1601 Euclid Ave, Syracuse, New York, 13224","1601 Euclid Ave, Syracuse, New York, 13224",-8472386.549,5317361.451,-8472386.549,5317361.451
153,EMERGENCY LEAK,3/9/2022 12:00:00 AM,566 Spencer St.,566 Spencer St.,-8479062.37,5320658.354,-8479062.37,5320658.354
154,EMERGENCY LEAK,3/7/2022 12:00:00 AM,1108 N. TOWNSEND ST SYRACUSE NY,1108 N. TOWNSEND ST SYRACUSE NY,-8477330.059,5321500.155,-8477330.059,5321500.155
155,REPAIR MAIN,3/5/2022 12:00:00 AM,"Schiller Ave & Wadsworth St, Syracuse, New York, 13203",WADSWORTH ST 200,-8475760.804,5322911.278,-8475760.804,5322911.278
156,EMERGENCY LEAK,3/5/2022 12:00:00 AM,"1920 Park St, Syracuse, New York, 13208",1920 PARK ST,-8478644.541,5322816.548,-8478644.541,5322816.548
157,EMERGENCY LEAK,3/5/2022 12:00:00 AM,1601 Euclid Ave.,1601 Euclid Ave.,-8472386.549,5317361.451,-8472386.549,5317361.451
158,EMERGENCY LEAK,3/4/2022 12:00:00 AM,"144 Thurlow Dr,  Syracuse,  New York,  13205","144 Thurlow Dr,  Syracuse,  New York,  13205 Syracuse 13205",-8475531.14411,5311294.57729,-8475531.14411,5311294.57729
159,EMERGENCY LEAK,3/2/2022 12:00:00 AM,"2005 E Fayette St, Syracuse, New York, 13224",E FAYETTE ST 2000,-8472998.015,5319317.457,-8472998.015,5319317.457
160,EMERGENCY LEAK,3/2/2022 12:00:00 AM,"202 S Beech St,  Syracuse,  New York,  13210","202 S Beech St,  Syracuse,  New York,  13210 Syracuse 13210",-8474526.10729,5319429.73807,-8474526.10729,5319429.73807
161,EMERGENCY LEAK,3/1/2022 12:00:00 AM,"213 Croly St Syracuse,  New York,  13224",Across from 213 croly St,-8472821.209,5319228.885,-8472821.209,5319228.885
162,EMERGENCY LEAK,3/1/2022 12:00:00 AM,901 Crawford Ave,901 Crawford Ave,-8472587.224,5316632.706,-8472587.224,5316632.706
163,EMERGENCY LEAK,2/24/2022 12:00:00 AM,"1320 Willis Ave,  Syracuse,  New York,  13204",WILLIS AV 1300,-8482318.387,5321202.607,-8482318.387,5321202.607
164,EMERGENCY LEAK,2/24/2022 12:00:00 AM,1300 E. Colvin St.,1300 E. Colvin St.,-8474519.641,5315557.285,-8474519.641,5315557.285
165,REPAIR MAIN,2/23/2022 12:00:00 AM,325 Goodrich Ave,N/E corner Goodrich Ave @ Thayer,-8474379.452,5314401.219,-8474379.452,5314401.219
166,EMERGENCY LEAK,2/22/2022 12:00:00 AM,103 Otisco St.,On Hydrant Branch,-8477997.102,5319059.916,-8477997.102,5319059.916
167,REPAIR MAIN,2/20/2022 12:00:00 AM,"144 Wellington Pl, Syracuse, New York, 13210",WELLINGTON PL 100,-8475682.161,5319228.448,-8475682.161,5319228.448
168,EMERGENCY LEAK,2/18/2022 12:00:00 AM,"100 Kirkpatrick St, Syracuse, New York, 13208",BASIN ST 200,-8477853.74,5321552.33,-8477853.74,5321552.33
169,EMERGENCY LEAK,2/18/2022 12:00:00 AM,2116-24 E. Fayette St,On Croly St. side of property,-8472821.209,5319228.885,-8472821.209,5319228.885
170,EMERGENCY LEAK,2/17/2022 12:00:00 AM,945 Jamesville Ave,945 Jamesville Ave,-8474684.813,5314618.393,-8474684.813,5314618.393
171,EMERGENCY LEAK,2/17/2022 12:00:00 AM,"1006 JAMSESVILLE AVE Syracuse,  New York,  13210",JAMESVILLE AV 1000,-8474629.593,5314531.182,-8474629.593,5314531.182
172,EMERGENCY LEAK,2/17/2022 12:00:00 AM,1226 E. Water St.,Working on E. Washington St. side of property near driveway entrance,-8474857.112,5319492.314,-8474857.112,5319492.314
173,EMERGENCY LEAK,2/16/2022 12:00:00 AM,"122 Willumae Dr,  Syracuse,  New York,  13208",WORKING ON THE FORDLAND AVE SIDE,-8477113.028,5323671.978,-8477113.028,5323671.978
174,EMERGENCY LEAK,2/16/2022 12:00:00 AM,107 Standish Dr,107 Standish Dr,-8472118.9,5317846.957,-8472118.9,5317846.957
175,EMERGENCY LEAK,2/16/2022 12:00:00 AM,100 (Block) Temple St.,20' W. of Hydrant @ N/W Corner of intersection (On S. Side of Road),-8477125.242,5318146.587,-8477125.242,5318146.587
176,EMERGENCY LEAK,2/16/2022 12:00:00 AM,Erie Blvd. W & Van Rennselaer St,N/W Corner of intersection,-8478803.182,5319402.723,-8478803.182,5319402.723
177,EMERGENCY LEAK,2/16/2022 12:00:00 AM,"306 S Beech St, Syracuse, New York, 13210",S BEECH ST 200,-8474502.614,5319359.077,-8474502.614,5319359.077
178,EMERGENCY LEAK,2/16/2022 12:00:00 AM,216 BASIN ST SYRACUSE  NY,ACROSS THE STREET OF 216 BASIN ST,-8477832.69,5321523.822,-8477832.69,5321523.822
179,EMERGENCY LEAK,2/16/2022 12:00:00 AM,545 Buckingham Ave,545 Buckingham Ave,-8473684.86,5315537.893,-8473684.86,5315537.893
180,EMERGENCY LEAK,2/16/2022 12:00:00 AM,102 Carlton Rd.,30' South of Hydrant,-8479986.647,5315612.707,-8479986.647,5315612.707
181,EMERGENCY LEAK,2/16/2022 12:00:00 AM,"1101 N Salina St, Syracuse, New York, 13208",N SALINA ST 1100,-8477739.212,5321857.809,-8477739.212,5321857.809
182,EMERGENCY LEAK,2/15/2022 12:00:00 AM,"Wadsworth St & Scoville Ave, Syracuse, New York, 13203",SCOVILLE AV 100,-8475739.408,5322517.072,-8475739.408,5322517.072
183,EMERGENCY LEAK,2/15/2022 12:00:00 AM,"2250 Park St,  Syracuse,  New York,  13208","2250 Park St,  Syracuse,  New York,  13208",-8479546.255,5323605.738,-8479546.255,5323605.738
184,EMERGENCY LEAK,2/15/2022 12:00:00 AM,216 Pharis St.,216 Pharis St.,-8481611.688,5320630.363,-8481611.688,5320630.363
185,EMERGENCY LEAK,2/15/2022 12:00:00 AM,"1126 Erie Blvd W, Syracuse, New York, 13204","1126 Erie Blvd W, Syracuse, New York, 13204",-8480177.315,5319564.847,-8480177.315,5319564.847
186,EMERGENCY LEAK,2/15/2022 12:00:00 AM,129 Magnolia St.,129 Magnolia St.,-8479769.922,5318969.645,-8479769.922,5318969.645
187,REPLACE MAIN,2/15/2022 12:00:00 AM,"Erie Blvd W & Van Rensselaer St, Syracuse, New York, 13204",N/W corner ERIE BLVD W @ VAN RENSSELAER ST--BEHIND POLE #11,-8478877.933,5319374.669,-8478877.933,5319374.669
188,EMERGENCY LEAK,2/14/2022 12:00:00 AM,"111 Dorchester Ave,  Syracuse,  New York,  13203",DORCHESTER AV 100,-8474226.174,5322429.896,-8474226.174,5322429.896
189,EMERGENCY LEAK,2/13/2022 12:00:00 AM,139 Alden St.,139 Alden St.,-8475101.184,5314964.066,-8475101.184,5314964.066
190,EMERGENCY LEAK,2/12/2022 12:00:00 AM,104 Union Ave,104 Union Ave,-8476829.84,5320487.929,-8476829.84,5320487.929
191,EMERGENCY LEAK,2/12/2022 12:00:00 AM,104 Union Ave,104 Union Ave,-8476829.84,5320487.929,-8476829.84,5320487.929
192,EMERGENCY LEAK,2/9/2022 12:00:00 AM,135 Minerva St,135 Minerva St,-8476259.796,5312423.631,-8476259.796,5312423.631
193,EMERGENCY LEAK,2/7/2022 12:00:00 AM,Seeley Rd. @ Erie Blvd. E.,S/E Corner of intersection,-8471864.762,5320113.2,-8471864.762,5320113.2
194,EMERGENCY LEAK,2/3/2022 12:00:00 AM,"108 Russell Pl,  Syracuse,  New York,  13207",RUSSELL PL 100,-8478966.845,5314295.937,-8478966.845,5314295.937
195,EMERGENCY LEAK,2/3/2022 12:00:00 AM,"3412 James St, Syracuse, New York, 13206",3412 JAMES ST & MILFORD DR W,-8471346.34,5322497.803,-8471346.34,5322497.803
196,EMERGENCY LEAK,2/2/2022 12:00:00 AM,Willis Ave. & Kane Rd.,In Intersection,-8482343.666,5321252.566,-8482343.666,5321252.566
197,EMERGENCY LEAK,2/2/2022 12:00:00 AM,"Westmoreland Ave & E Colvin St, Syracuse, New York, 13210",WESTMORELAND AV 1600,-8472866.358,5315316.792,-8472866.358,5315316.792
198,EMERGENCY LEAK,2/2/2022 12:00:00 AM,E.ADAMS ST (MONTGOMERY ST & S.STATE ST),E ADAMS ST (MONTGOMERY ST & S.STATE ST),-8476780.27,5318487.464,-8476780.27,5318487.464
199,EMERGENCY LEAK,2/1/2022 12:00:00 AM,"S State St, Syracuse, New York, 13205",S STATE ST 100,-8476685.643,5319583.294,-8476685.643,5319583.294
200,EMERGENCY LEAK,2/1/2022 12:00:00 AM,828 Jamesville Ave,828 Jamesville Ave,-8474811.311,5314815.84,-8474811.311,5314815.84
201,EMERGENCY LEAK,2/1/2022 12:00:00 AM,"127 Cornell Ave,  Syracuse,  New York,  13207",CORNELL AV 127,-8479165.027,5313721.442,-8479165.027,5313721.442
202,EMERGENCY LEAK,1/31/2022 12:00:00 AM,"S State St & E Raynor Ave,  Syracuse,  New York,  13202",S STATE ST 1300,-8476659.386,5317372.206,-8476659.386,5317372.206
203,EMERGENCY LEAK,1/31/2022 12:00:00 AM,"551 Buckingham Ave,  Syracuse,  New York,  13210",BUCKINGHAM AV 500,-8473675.702,5315399.387,-8473675.702,5315399.387
204,REPAIR MAIN,1/30/2022 12:00:00 AM,"204 Ash St, Syracuse, New York, 13208",204-10 ASH ST,-8477151.301,5321039.991,-8477151.301,5321039.991
205,EMERGENCY LEAK,1/29/2022 12:00:00 AM,"922 Erie Blvd W, Syracuse, New York, 13204",LEFT SIDE OF 922 ERIE BLVD W IN THE PARKING LOT,-8479681.448,5319312.248,-8479681.448,5319312.248
206,EMERGENCY LEAK,1/29/2022 12:00:00 AM,"211 Kenwick Dr, Syracuse, New York, 13208",211 KENWICK DR SYRACUSE NY,-8475353.223,5323571.39,-8475353.223,5323571.39
207,EMERGENCY LEAK,1/28/2022 12:00:00 AM,"Crawford Ave & Broad St,  Syracuse,  New York,  13224",BROAD ST 1300,-8472600.819,5316699.143,-8472600.819,5316699.143
208,EMERGENCY LEAK,1/28/2022 12:00:00 AM,Erie Blvd E. @ N. Beech St.,N/E Corner of intersection,-8474466.67,5319655.215,-8474466.67,5319655.215
209,EMERGENCY LEAK,1/27/2022 12:00:00 AM,1315 Westmoreland Ave,1315 Westmoreland Ave,-8472931.775,5316307.892,-8472931.775,5316307.892
210,EMERGENCY LEAK,1/26/2022 12:00:00 AM,256 W. Fayette St.,On Washington St. side,-8477453.144,5319519.32,-8477453.144,5319519.32
211,EMERGENCY LEAK,1/26/2022 12:00:00 AM,401 N. State St.,401 N. State St.,-8476982.45,5320257.688,-8476982.45,5320257.688
212,EMERGENCY LEAK,1/26/2022 12:00:00 AM,340 Kensington Pl.,Front of property,-8473576.338,5316038.847,-8473576.338,5316038.847
213,EMERGENCY LEAK,1/25/2022 12:00:00 AM,Lime St & Northway St,S/E Corner of Lime St & Northway,-8470749.099,5319982.691,-8470749.099,5319982.691
214,EMERGENCY LEAK,1/25/2022 12:00:00 AM,"205 Ash St, Syracuse, New York, 13208",IN FRONT OF 205 ASH ST,-8477151.301,5321039.991,-8477151.301,5321039.991
215,EMERGENCY LEAK,1/25/2022 12:00:00 AM,"100 Phillips Rd, Syracuse, New York, 13214",PHILLIPS RD 100,-8470659.531,5319098.47,-8470659.531,5319098.47
216,EMERGENCY LEAK,1/25/2022 12:00:00 AM,"South Ave & Kirk Ave, Syracuse, New York, 13207",SOUTH AV . SOUTH AVE @ KIRK AVE ON BRIDGE,-8477901.736,5316157.543,-8477901.736,5316157.543
217,EMERGENCY LEAK,1/25/2022 12:00:00 AM,"148 Tejah Ave, Syracuse, New York, 13210",148 TEJAH AVE FRONT OF HOUSE,-8474097.193,5314263.86,-8474097.193,5314263.86
218,EMERGENCY LEAK,1/25/2022 12:00:00 AM,"105 Sherbourne Rd, Syracuse, New York, 13224",LEAK IS ON THE MEADOWBROOK SIDE,-8472698.501,5316987.647,-8472698.501,5316987.647
219,EMERGENCY LEAK,1/24/2022 12:00:00 AM,117 Phillips Rd @ Albert Rd., ,-8470659.531,5319098.47,-8470659.531,5319098.47
220,REPAIR MAIN,1/24/2022 12:00:00 AM,"Phillips Rd & De Mong Dr, Syracuse, New York, 13214",SOUTH EAST CORNER,-8470659.531,5319098.47,-8470659.531,5319098.47
221,EMERGENCY LEAK,1/24/2022 12:00:00 AM,"823 N Townsend St, Syracuse, New York, 13208",ASH ST 200,-8477107.804,5321065.284,-8477107.804,5321065.284
222,EMERGENCY LEAK,1/24/2022 12:00:00 AM,"100 Harding St, Syracuse, New York, 13208",HUNTLEY ST 200,-8475625.705,5323837.228,-8475625.705,5323837.228
223,EMERGENCY LEAK,1/20/2022 12:00:00 AM,Leavenworth Ave,Between Tracy St. & Erie Blvd W,-8478440.884,5319543.307,-8478440.884,5319543.307
224,EMERGENCY LEAK,1/19/2022 12:00:00 AM,256 W Fayette St Syracuse NY,W WASHINGTON ST 200,-8477483.54,5319515.878,-8477483.54,5319515.878
225,EMERGENCY LEAK,1/16/2022 12:00:00 AM,"Erie Blvd W & Willis Ave, Syracuse, New York, 13204",MIDDLE OF INTERECTION,-8482269.262,5321107.301,-8482269.262,5321107.301
226,EMERGENCY LEAK,1/13/2022 12:00:00 AM,"139 Conifer Dr,  Syracuse,  New York,  13205",CONIFER DR 100,-8476252.372,5310541.602,-8476252.372,5310541.602
227,EMERGENCY LEAK,1/12/2022 12:00:00 AM,208 Basin St.,208 Basin St.,-8477775.619,5321473.286,-8477775.619,5321473.286
228,EMERGENCY LEAK,1/12/2022 12:00:00 AM,931 W. Lafayette Ave.,931 W. Lafayette Ave.,-8477982.632,5314734.548,-8477982.632,5314734.548
229,EMERGENCY LEAK,1/12/2022 12:00:00 AM,1301 Geddes St,On the Elliott St side of 1301 Geddes St,-8479620.571,5317304.142,-8479620.571,5317304.142
230,EMERGENCY LEAK,1/5/2022 12:00:00 AM,1232 W. Genesee St.,1232 W. Genesee St.,-8479957.625,5320082.324,-8479957.625,5320082.324
231,EMERGENCY LEAK,1/3/2022 12:00:00 AM,1051 S. Townsend St.,1051 S. Townsend St.,-8476499.153,5318155.755,-8476499.153,5318155.755
